OBJECT_NAME,OBJECT_ID,EPOCH,MEAN_MOTION,ECCENTRICITY,INCLINATION,RA_OF_ASC_NODE,ARG_OF_PERICENTER,MEAN_ANOMALY,EPHEMERIS_TYPE,CLASSIFICATION_TYPE,NORAD_CAT_ID,ELEMENT_SET_NO,REV_AT_EPOCH,BSTAR,MEAN_MOTION_DOT,MEAN_MOTION_DDOT
COSMOS 2058,1990-010A,2026-06-10T12:25:11.987904,15.11967098,.00100415,82.4660,315.9333,24.0527,336.1171,0,U,20465,999,95626,.18795828E-3,.3255E-4,0
SL-14 R/B,1990-010B,2026-06-10T13:24:09.599616,14.83641984,.00196829,82.5015,180.1702,358.5132,1.6021,0,U,20466,999,94225,.35756908E-4,.32E-5,0
SL-14 R/B,1990-018B,2026-06-10T07:52:24.986208,14.82211612,.00170466,82.5206,136.5187,142.8321,217.4078,0,U,20511,999,93630,.40026221E-4,.344E-5,0
HST,1990-037B,2026-06-10T05:34:29.132832,15.30670250,.0001977,28.4709,128.1050,72.5591,287.5221,0,U,20580,999,78750,.1632E-3,.5211E-4,0
SL-16 R/B,1990-046B,2026-06-10T14:03:46.649376,14.15023036,.00138988,70.9988,102.8114,171.6308,188.5050,0,U,20625,999,86153,.18127151E-3,.304E-5,0
COSMOS 2084,1990-055A,2026-06-09T22:58:27.430752,15.06086664,.00054852,62.7912,20.7675,265.8173,94.2301,0,U,20663,999,95021,.13800269E-3,.1825E-4,0
SL-6 R/B(2),1990-055D,2026-06-10T14:24:01.221696,15.03981056,.00395718,62.7827,297.7913,4.2633,355.8795,0,U,20666,999,95216,.11820235E-3,.146E-4,0
SL-8 R/B,1990-078B,2026-06-10T11:44:49.216992,14.92057101,.03524281,82.9013,167.6946,61.0080,302.5981,0,U,20775,999,82312,.50629888E-3,.17988E-3,0
SL-8 R/B,1991-006B,2026-06-10T14:55:53.452416,13.77505444,.0023409,82.9423,100.9174,132.0513,45.2852,0,U,21088,999,77686,.24042362E-4,.39E-6,0
OKEAN-3,1991-039A,2026-06-10T14:58:54.643584,15.05295278,.0014523,82.5161,246.7451,21.6391,338.5447,0,U,21397,999,87901,.11694223E-3,.1704E-4,0
COSMOS 2151,1991-042A,2026-06-10T14:10:49.846944,15.00418940,.0013786,82.4961,354.0474,103.7466,256.5294,0,U,21422,999,87712,.10054655E-3,.1293E-4,0
SL-14 R/B,1991-042B,2026-06-10T07:59:44.969568,14.81898135,.00156015,82.4923,133.3231,299.5789,60.3870,0,U,21423,999,86679,.4080795E-4,.346E-5,0
ERS-1,1991-050A,2026-06-10T15:08:47.095296,14.39513138,.00307354,98.7798,182.1689,287.2576,72.5248,0,U,21574,999,82910,.95279678E-4,.252E-5,0
ARIANE 40 R/B,1991-050F,2026-06-10T14:24:12.843360,14.42953171,.00039846,98.1877,210.2733,135.5520,224.5992,0,U,21610,999,83239,.8235187E-4,.234E-5,0
INTERCOSMOS 25,1991-086A,2026-06-10T06:16:26.173056,12.12187450,.14842708,82.6056,254.0007,277.3473,66.1851,0,U,21819,999,50790,.81241566E-4,.407E-5,0
SL-8 R/B,1992-008B,2026-06-10T14:13:03.066240,13.75975142,.00334784,82.9264,198.6908,233.6553,242.2024,0,U,21876,999,72219,.99740908E-4,.112E-5,0
SL-8 R/B,1992-020B,2026-06-10T12:44:50.756928,13.75548187,.00301126,82.9305,84.8010,40.6642,137.3356,0,U,21938,999,71389,.25299141E-4,.4E-6,0
USA 81,1992-023A,2026-06-10T11:58:15.435264,14.32396392,.00027762,85.0077,77.8675,90.7371,269.4139,0,U,21949,999,10807,.44117564E-4,.139E-5,0
COSMOS 2219,1992-076A,2026-06-10T11:17:34.751904,14.14095867,.00162851,71.0574,184.1134,55.1336,305.1315,0,U,22219,999,73149,.60626543E-4,.69E-6,0
SL-16 R/B,1992-076B,2026-06-10T14:30:42.098688,14.16871402,.00145233,71.0005,352.6486,307.2282,110.2192,0,U,22220,999,73499,-.61979698E-4,-.172E-5,0
COSMOS 2221,1992-080A,2026-06-10T12:28:09.038784,14.96516324,.00127894,82.5032,190.1528,236.7250,123.2748,0,U,22236,999,79467,.10345137E-3,.1203E-4,0
SL-16 R/B,1992-093B,2026-06-10T07:36:14.735808,14.15464216,.0004341,71.0200,169.8144,198.8483,161.2480,0,U,22285,999,72626,-.77213E-4,-.198E-5,0
COSMOS 2228,1992-094A,2026-06-10T12:57:09.444960,14.97562377,.00175734,82.5170,148.4100,355.3145,4.7910,0,U,22286,999,78995,.14902862E-3,.177E-4,0
SL-16 R/B,1993-016B,2026-06-10T15:35:23.286048,14.15309915,.00106369,71.0080,19.9391,192.8593,167.2260,0,U,22566,999,71532,.13488378E-3,.215E-5,0
COSMOS 2242,1993-024A,2026-06-10T11:54:24.127776,14.96883412,.00160197,82.5179,177.9444,359.3222,0.7975,0,U,22626,999,79427,.12089411E-3,.1416E-4,0
SL-16 R/B,1993-059B,2026-06-10T06:58:38.135424,14.17245572,.0015038,70.9883,175.8474,66.0040,294.2656,0,U,22803,999,69265,.16334E-3,.282E-5,0
ARIANE 40 R/B,1993-061H,2026-06-10T10:22:09.944256,14.32905016,.00109009,98.4819,228.4292,16.4284,343.7252,0,U,22830,999,70738,.71218451E-4,.152E-5,0
COSMOS 2278,1994-023A,2026-06-10T14:22:31.670688,14.14394705,.00105862,71.0545,340.7098,250.6928,109.3050,0,U,23087,999,65794,.19394237E-3,.324E-5,0
SL-16 R/B,1994-023B,2026-06-10T14:29:17.329920,14.15020786,.00031961,70.9994,235.7573,193.0050,167.0991,0,U,23088,999,65923,.16404323E-3,.27E-5,0
SL-16 R/B,1994-074B,2026-06-10T14:19:51.789216,14.79496736,.00050938,97.6993,188.5925,281.4345,193.4324,0,U,23343,999,70098,.53911771E-4,.354E-5,0
